start=new Date('2023-05-03T00:00:00.000Z').valueOf();
sats=[{"INCLINATION":"53.0522","REV_AT_EPOCH":"11531","ELEMENT_SET_NO":"999","FILE":"3899068","TLE_LINE1":"1 48134U 21027AU  23122.39458701  .00003769  00000-0  27175-3 0  9999","TIME_SYSTEM":"UTC","SEMIMAJOR_AXIS":"6925.326","CENTER_NAME":"EARTH","ECCENTRICITY":"0.00014010","OBJECT_TYPE":"PAYLOAD","APOAPSIS":"548.162","EPOCH":"2023-05-02T09:28:12.317664","PERIAPSIS":"546.221","NORAD_CAT_ID":"48134","CLASSIFICATION_TYPE":"U","REF_FRAME":"TEME","MEAN_ELEMENT_THEORY":"SGP4","BSTAR":"0.00027175000000","MEAN_ANOMALY":"277.3011","DECAY_DATE":null,"PERIOD":"95.592","LAUNCH_DATE":"2021-04-07","RA_OF_ASC_NODE":"170.6602","COUNTRY_CODE":"US","GP_ID":"231091951","ARG_OF_PERICENTER":"82.8138","TLE_LINE2":"2 48134  53.0522 170.6602 0001401  82.8138 277.3011 15.06407203115317","SITE":"AFETR","EPHEMERIS_TYPE":"0","MEAN_MOTION_DOT":"0.00003769","RCS_SIZE":"LARGE","MEAN_MOTION":"15.06407203","OBJECT_ID":"2021-027AU","MEAN_MOTION_DDOT":"0.0000000000000","OBJECT_NAME":"STARLINK-2476"},{"SITE":"AFETR","TLE_LINE2":"2 48135  53.0524 175.2231 0001433  96.7935 263.3217 15.06406985115266","EPHEMERIS_TYPE":"0","ARG_OF_PERICENTER":"96.7935","GP_ID":"231090700","COUNTRY_CODE":"US","MEAN_ANOMALY":"263.3217","RA_OF_ASC_NODE":"175.2231","DECAY_DATE":null,"LAUNCH_DATE":"2021-04-07","PERIOD":"95.592","REF_FRAME":"TEME","BSTAR":"0.00021591000000","MEAN_ELEMENT_THEORY":"SGP4","NORAD_CAT_ID":"48135","CLASSIFICATION_TYPE":"U","OBJECT_NAME":"STARLINK-2478","MEAN_MOTION_DDOT":"0.0000000000000","MEAN_MOTION":"15.06406985","OBJECT_ID":"2021-027AV","MEAN_MOTION_DOT":"0.00002937","RCS_SIZE":"LARGE","SEMIMAJOR_AXIS":"6925.327","CENTER_NAME":"EARTH","TIME_SYSTEM":"UTC","TLE_LINE1":"1 48135U 21027AV  23122.52869010  .00002937  00000-0  21591-3 0  9996","FILE":"3899068","INCLINATION":"53.0524","REV_AT_EPOCH":"11526","ELEMENT_SET_NO":"999","PERIAPSIS":"546.200","EPOCH":"2023-05-02T12:41:18.824640","APOAPSIS":"548.185","OBJECT_TYPE":"PAYLOAD","ECCENTRICITY":"0.00014330"},{"NORAD_CAT_ID":"48136","CLASSIFICATION_TYPE":"U","BSTAR":"0.00059023000000","MEAN_ELEMENT_THEORY":"SGP4","REF_FRAME":"TEME","DECAY_DATE":null,"PERIOD":"95.591","LAUNCH_DATE":"2021-04-07","RA_OF_ASC_NODE":"169.9473","MEAN_ANOMALY":"261.2939","COUNTRY_CODE":"US","ARG_OF_PERICENTER":"98.8172","GP_ID":"231122894","TLE_LINE2":"2 48136  53.0540 169.9473 0001081  98.8172 261.2939 15.06410168115343","EPHEMERIS_TYPE":"0","SITE":"AFETR","MEAN_MOTION_DOT":"0.00008523","RCS_SIZE":"LARGE","OBJECT_ID":"2021-027AW","MEAN_MOTION":"15.06410168","MEAN_MOTION_DDOT":"0.0000000000000","OBJECT_NAME":"STARLINK-2479","ELEMENT_SET_NO":"999","REV_AT_EPOCH":"11534","INCLINATION":"53.0540","FILE":"3899277","TLE_LINE1":"1 48136U 21027AW  23122.55213393  .00008523  00000-0  59023-3 0  9995","TIME_SYSTEM":"UTC","CENTER_NAME":"EARTH","SEMIMAJOR_AXIS":"6925.317","ECCENTRICITY":"0.00010810","OBJECT_TYPE":"PAYLOAD","APOAPSIS":"547.931","EPOCH":"2023-05-02T13:15:04.371552","PERIAPSIS":"546.434"},{"MEAN_MOTION_DOT":"0.00002746","RCS_SIZE":"LARGE","MEAN_MOTION":"15.06408988","OBJECT_ID":"2021-027AX","OBJECT_NAME":"STARLINK-2480","MEAN_MOTION_DDOT":"0.0000000000000","REF_FRAME":"TEME","BSTAR":"0.00020310000000","MEAN_ELEMENT_THEORY":"SGP4","CLASSIFICATION_TYPE":"U","NORAD_CAT_ID":"48137","COUNTRY_CODE":"US","MEAN_ANOMALY":"277.6476","DECAY_DATE":null,"LAUNCH_DATE":"2021-04-07","RA_OF_ASC_NODE":"150.4059","PERIOD":"95.592","GP_ID":"231092202","ARG_OF_PERICENTER":"82.4658","TLE_LINE2":"2 48137  53.0528 150.4059 0001282  82.4658 277.6476 15.06408988115609","SITE":"AFETR","EPHEMERIS_TYPE":"0","OBJECT_TYPE":"PAYLOAD","ECCENTRICITY":"0.00012820","EPOCH":"2023-05-02T10:39:51.066720","APOAPSIS":"548.074","PERIAPSIS":"546.298","FILE":"3899068","INCLINATION":"53.0528","REV_AT_EPOCH":"11560","ELEMENT_SET_NO":"999","TLE_LINE1":"1 48137U 21027AX  23122.44434105  .00002746  00000-0  20310-3 0  9998","SEMIMAJOR_AXIS":"6925.321","CENTER_NAME":"EARTH","TIME_SYSTEM":"UTC"},{"GP_ID":"231122400","ARG_OF_PERICENTER":"73.5560","TLE_LINE2":"2 48138  53.0544 169.7228 0001284  73.5560 286.5570 15.06408457115351","SITE":"AFETR","EPHEMERIS_TYPE":"0","CLASSIFICATION_TYPE":"U","NORAD_CAT_ID":"48138","REF_FRAME":"TEME","BSTAR":"0.00022668000000","MEAN_ELEMENT_THEORY":"SGP4","MEAN_ANOMALY":"286.5570","DECAY_DATE":null,"RA_OF_ASC_NODE":"169.7228","LAUNCH_DATE":"2021-04-07","PERIOD":"95.592","COUNTRY_CODE":"US","MEAN_MOTION":"15.06408457","OBJECT_ID":"2021-027AY","MEAN_MOTION_DDOT":"0.0000000000000","OBJECT_NAME":"STARLINK-2481","RCS_SIZE":"LARGE","MEAN_MOTION_DOT":"0.00003097","TIME_SYSTEM":"UTC","SEMIMAJOR_AXIS":"6925.323","CENTER_NAME":"EARTH","INCLINATION":"53.0544","REV_AT_EPOCH":"11535","ELEMENT_SET_NO":"999","FILE":"3899277","TLE_LINE1":"1 48138U 21027AY  23122.60468055  .00003097  00000-0  22668-3 0  9996","APOAPSIS":"548.077","EPOCH":"2023-05-02T14:30:44.399520","PERIAPSIS":"546.298","ECCENTRICITY":"0.00012840","OBJECT_TYPE":"PAYLOAD"},{"SEMIMAJOR_AXIS":"6925.333","CENTER_NAME":"EARTH","TIME_SYSTEM":"UTC","FILE":"3899068","INCLINATION":"53.0526","REV_AT_EPOCH":"11561","ELEMENT_SET_NO":"999","TLE_LINE1":"1 48139U 21027AZ  23122.46277180  .00002841  00000-0  20952-3 0  9998","EPOCH":"2023-05-02T11:06:23.483520","APOAPSIS":"548.115","PERIAPSIS":"546.281","OBJECT_TYPE":"PAYLOAD","ECCENTRICITY":"0.00013240","GP_ID":"231091201","ARG_OF_PERICENTER":"78.3438","TLE_LINE2":"2 48139  53.0526 150.3534 0001324  78.3438 281.7699 15.06404966115619","EPHEMERIS_TYPE":"0","SITE":"AFETR","REF_FRAME":"TEME","MEAN_ELEMENT_THEORY":"SGP4","BSTAR":"0.00020952000000","CLASSIFICATION_TYPE":"U","NORAD_CAT_ID":"48139","COUNTRY_CODE":"US","MEAN_ANOMALY":"281.7699","LAUNCH_DATE":"2021-04-07","DECAY_DATE":null,"PERIOD":"95.592","RA_OF_ASC_NODE":"150.3534","MEAN_MOTION":"15.06404966","OBJECT_ID":"2021-027AZ","OBJECT_NAME":"STARLINK-2482","MEAN_MOTION_DDOT":"0.0000000000000","RCS_SIZE":"LARGE","MEAN_MOTION_DOT":"0.00002841"},{"MEAN_MOTION":"15.06402996","OBJECT_ID":"2021-027BA","MEAN_MOTION_DDOT":"0.0000000000000","OBJECT_NAME":"STARLINK-2483","RCS_SIZE":"LARGE","MEAN_MOTION_DOT":"0.00004283","ARG_OF_PERICENTER":"83.9127","GP_ID":"231091451","SITE":"AFETR","TLE_LINE2":"2 48140  53.0530 170.1990 0001307  83.9127 276.2011 15.06402996115337","EPHEMERIS_TYPE":"0","CLASSIFICATION_TYPE":"U","NORAD_CAT_ID":"48140","REF_FRAME":"TEME","BSTAR":"0.00030623000000","MEAN_ELEMENT_THEORY":"SGP4","MEAN_ANOMALY":"276.2011","LAUNCH_DATE":"2021-04-07","DECAY_DATE":null,"RA_OF_ASC_NODE":"170.1990","PERIOD":"95.592","COUNTRY_CODE":"US","APOAPSIS":"548.110","EPOCH":"2023-05-02T11:55:27.965280","PERIAPSIS":"546.299","ECCENTRICITY":"0.00013070","OBJECT_TYPE":"PAYLOAD","TIME_SYSTEM":"UTC","SEMIMAJOR_AXIS":"6925.339","CENTER_NAME":"EARTH","INCLINATION":"53.0530","REV_AT_EPOCH":"11533","ELEMENT_SET_NO":"999","FILE":"3899068","TLE_LINE1":"1 48140U 21027BA  23122.49685145  .00004283  00000-0  30623-3 0  9995"},{"OBJECT_TYPE":"PAYLOAD","ECCENTRICITY":"0.00015050","EPOCH":"2023-05-02T10:53:07.812960","APOAPSIS":"548.253","PERIAPSIS":"546.168","FILE":"3899068","ELEMENT_SET_NO":"999","REV_AT_EPOCH":"11534","INCLINATION":"53.0530","TLE_LINE1":"1 48141U 21027BB  23122.45356265  .00003343  00000-0  24324-3 0  9997","CENTER_NAME":"EARTH","SEMIMAJOR_AXIS":"6925.345","TIME_SYSTEM":"UTC","RCS_SIZE":"LARGE","MEAN_MOTION_DOT":"0.00003343","OBJECT_ID":"2021-027BB","MEAN_MOTION":"15.06401053","OBJECT_NAME":"STARLINK-2484","MEAN_MOTION_DDOT":"0.0000000000000","MEAN_ELEMENT_THEORY":"SGP4","BSTAR":"0.00024324000000","REF_FRAME":"TEME","NORAD_CAT_ID":"48141","CLASSIFICATION_TYPE":"U","COUNTRY_CODE":"US","DECAY_DATE":null,"PERIOD":"95.592","LAUNCH_DATE":"2021-04-07","RA_OF_ASC_NODE":"170.3987","MEAN_ANOMALY":"265.5039","ARG_OF_PERICENTER":"94.6121","GP_ID":"231091702","TLE_LINE2":"2 48141  53.0530 170.3987 0001505  94.6121 265.5039 15.06401053115344","SITE":"AFETR","EPHEMERIS_TYPE":"0"},{"CENTER_NAME":"EARTH","SEMIMAJOR_AXIS":"6925.323","TIME_SYSTEM":"UTC","TLE_LINE1":"1 48142U 21027BC  23122.45908227  .00001382  00000-0  11164-3 0  9998","FILE":"3899068","ELEMENT_SET_NO":"999","INCLINATION":"53.0520","REV_AT_EPOCH":"11561","PERIAPSIS":"546.277","EPOCH":"2023-05-02T11:01:04.708128","APOAPSIS":"548.099","OBJECT_TYPE":"PAYLOAD","ECCENTRICITY":"0.00013160","EPHEMERIS_TYPE":"0","TLE_LINE2":"2 48142  53.0520 150.3727 0001316 100.8128 259.3009 15.06408364115611","SITE":"AFETR","GP_ID":"231091952","ARG_OF_PERICENTER":"100.8128","COUNTRY_CODE":"US","DECAY_DATE":null,"LAUNCH_DATE":"2021-04-07","RA_OF_ASC_NODE":"150.3727","PERIOD":"95.592","MEAN_ANOMALY":"259.3009","MEAN_ELEMENT_THEORY":"SGP4","BSTAR":"0.00011164000000","REF_FRAME":"TEME","NORAD_CAT_ID":"48142","CLASSIFICATION_TYPE":"U","OBJECT_NAME":"STARLINK-2485","MEAN_MOTION_DDOT":"0.0000000000000","OBJECT_ID":"2021-027BC","MEAN_MOTION":"15.06408364","RCS_SIZE":"LARGE","MEAN_MOTION_DOT":"0.00001382"},{"ECCENTRICITY":"0.00012350","OBJECT_TYPE":"PAYLOAD","PERIAPSIS":"546.331","APOAPSIS":"548.042","EPOCH":"2023-05-02T15:23:06.679392","TLE_LINE1":"1 48143U 21027BD  23122.64104953  .00000305  00000-0  39388-4 0  9997","REV_AT_EPOCH":"11626","INCLINATION":"53.0537","ELEMENT_SET_NO":"999","FILE":"3899277","TIME_SYSTEM":"UTC","SEMIMAJOR_AXIS":"6925.322","CENTER_NAME":"EARTH","MEAN_MOTION_DOT":"0.00000305","RCS_SIZE":"LARGE","MEAN_MOTION_DDOT":"0.0000000000000","OBJECT_NAME":"STARLINK-2486","MEAN_MOTION":"15.06408802","OBJECT_ID":"2021-027BD","MEAN_ANOMALY":"269.5847","LAUNCH_DATE":"2021-04-07","DECAY_DATE":null,"RA_OF_ASC_NODE":"104.5535","PERIOD":"95.592","COUNTRY_CODE":"US","NORAD_CAT_ID":"48143","CLASSIFICATION_TYPE":"U","REF_FRAME":"TEME","MEAN_ELEMENT_THEORY":"SGP4","BSTAR":"0.00003938800000","EPHEMERIS_TYPE":"0","TLE_LINE2":"2 48143  53.0537 104.5535 0001235  90.5283 269.5847 15.06408802116267","SITE":"AFETR","GP_ID":"231123152","ARG_OF_PERICENTER":"90.5283"}];
